[{"OBJECT_NAME":"ION SCV-002","OBJECT_ID":"2021-006CV","EPOCH":"2026-03-09T22:24:22.770432","MEAN_MOTION":15.41456912,"ECCENTRICITY":0.00138318,"INCLINATION":97.1152,"RA_OF_ASC_NODE":73.1802,"ARG_OF_PERICENTER":113.9229,"MEAN_ANOMALY":246.3469,"EPHEMERIS_TYPE":0,"CLASSIFICATION_TYPE":"U","NORAD_CAT_ID":47504,"ELEMENT_SET_NO":999,"REV_AT_EPOCH":28472,"BSTAR":0.00039122375,"MEAN_MOTION_DOT":0.00016364,"MEAN_MOTION_DDOT":0},{"OBJECT_NAME":"STARLINK-34695","OBJECT_ID":"2025-157N","EPOCH":"2026-03-09T22:15:17.480160","MEAN_MOTION":15.39856376,"ECCENTRICITY":8.968e-5,"INCLINATION":53.161,"RA_OF_ASC_NODE":342.1869,"ARG_OF_PERICENTER":113.2486,"MEAN_ANOMALY":246.8614,"EPHEMERIS_TYPE":0,"CLASSIFICATION_TYPE":"U","NORAD_CAT_ID":64916,"ELEMENT_SET_NO":999,"REV_AT_EPOCH":3619,"BSTAR":0.0019591216,"MEAN_MOTION_DOT":0.000794,"MEAN_MOTION_DDOT":0}]
